start=new Date('2021-12-01T00:00:00.000Z').valueOf();
sats=[{"FILE":"3228256","TIME_SYSTEM":"UTC","DECAY_DATE":null,"CENTER_NAME":"EARTH","COUNTRY_CODE":"US","RCS_SIZE":"LARGE","OBJECT_TYPE":"PAYLOAD","REF_FRAME":"TEME","ECCENTRICITY":"0.00021490","ELEMENT_SET_NO":"999","MEAN_MOTION_DOT":"0.00000836","MEAN_MOTION":"15.06401468","OBJECT_ID":"2021-009AK","CLASSIFICATION_TYPE":"U","TLE_LINE2":"2 47581  53.0551 163.8450 0002149  85.0850 275.0384 15.06401468 45974","MEAN_MOTION_DDOT":"0.0000000000000","SEMIMAJOR_AXIS":"6925.344","RA_OF_ASC_NODE":"163.8450","LAUNCH_DATE":"2021-02-04","APOAPSIS":"548.697","REV_AT_EPOCH":"4597","MEAN_ELEMENT_THEORY":"SGP4","PERIAPSIS":"545.721","TLE_LINE1":"1 47581U 21009AK  21334.88593282  .00000836  00000-0  75037-4 0  9998","NORAD_CAT_ID":"47581","ARG_OF_PERICENTER":"85.0850","EPHEMERIS_TYPE":"0","OBJECT_NAME":"STARLINK-1984","EPOCH":"2021-11-30T21:15:44.595648","MEAN_ANOMALY":"275.0384","PERIOD":"95.592","INCLINATION":"53.0551","SITE":"AFETR","GP_ID":"190817518","BSTAR":"0.00007503700000"},{"INCLINATION":"53.0555","SITE":"AFETR","GP_ID":"190817769","BSTAR":"-0.00000768150000","OBJECT_NAME":"STARLINK-1986","EPOCH":"2021-11-30T20:57:09.986400","MEAN_ANOMALY":"281.0450","PERIOD":"95.592","TLE_LINE1":"1 47582U 21009AL  21334.87303225 -.00000396  00000-0 -76815-5 0  9993","NORAD_CAT_ID":"47582","EPHEMERIS_TYPE":"0","ARG_OF_PERICENTER":"79.0779","REV_AT_EPOCH":"4569","MEAN_ELEMENT_THEORY":"SGP4","PERIAPSIS":"545.734","TLE_LINE2":"2 47582  53.0555 183.9168 0002136  79.0779 281.0450 15.06400066 45690","MEAN_MOTION_DDOT":"0.0000000000000","RA_OF_ASC_NODE":"183.9168","SEMIMAJOR_AXIS":"6925.348","LAUNCH_DATE":"2021-02-04","APOAPSIS":"548.693","OBJECT_ID":"2021-009AL","CLASSIFICATION_TYPE":"U","MEAN_MOTION":"15.06400066","MEAN_MOTION_DOT":"-0.00000396","ELEMENT_SET_NO":"999","ECCENTRICITY":"0.00021360","DECAY_DATE":null,"COUNTRY_CODE":"US","CENTER_NAME":"EARTH","RCS_SIZE":"LARGE","REF_FRAME":"TEME","OBJECT_TYPE":"PAYLOAD","FILE":"3228256","TIME_SYSTEM":"UTC"},{"MEAN_MOTION_DDOT":"0.0000000000000","TLE_LINE2":"2 47583  53.0529 184.0099 0002045  78.6145 281.5074 15.06402328 45698","SEMIMAJOR_AXIS":"6925.341","RA_OF_ASC_NODE":"184.0099","LAUNCH_DATE":"2021-02-04","APOAPSIS":"548.623","OBJECT_ID":"2021-009AM","CLASSIFICATION_TYPE":"U","INCLINATION":"53.0529","BSTAR":"0.00012833000000","GP_ID":"190816517","SITE":"AFETR","OBJECT_NAME":"STARLINK-1987","EPOCH":"2021-11-30T20:25:19.251264","MEAN_ANOMALY":"281.5074","PERIOD":"95.592","TLE_LINE1":"1 47583U 21009AM  21334.85091726  .00001630  00000-0  12833-3 0  9990","NORAD_CAT_ID":"47583","EPHEMERIS_TYPE":"0","ARG_OF_PERICENTER":"78.6145","REV_AT_EPOCH":"4569","MEAN_ELEMENT_THEORY":"SGP4","PERIAPSIS":"545.790","ECCENTRICITY":"0.00020450","CENTER_NAME":"EARTH","DECAY_DATE":null,"COUNTRY_CODE":"US","RCS_SIZE":"LARGE","REF_FRAME":"TEME","OBJECT_TYPE":"PAYLOAD","FILE":"3228256","TIME_SYSTEM":"UTC","MEAN_MOTION":"15.06402328","MEAN_MOTION_DOT":"0.00001630","ELEMENT_SET_NO":"999"},{"MEAN_MOTION":"15.62757681","MEAN_MOTION_DOT":"-0.00000582","ELEMENT_SET_NO":"999","ECCENTRICITY":"0.00040010","RCS_SIZE":"LARGE","OBJECT_TYPE":"PAYLOAD","REF_FRAME":"TEME","DECAY_DATE":null,"COUNTRY_CODE":"US","CENTER_NAME":"EARTH","TIME_SYSTEM":"UTC","FILE":"3228256","INCLINATION":"53.0463","GP_ID":"190816767","SITE":"AFETR","BSTAR":"-0.00000048259000","EPOCH":"2021-11-30T09:39:40.417632","OBJECT_NAME":"STARLINK-1988","PERIOD":"92.145","MEAN_ANOMALY":"349.9855","NORAD_CAT_ID":"47584","TLE_LINE1":"1 47584U 21009AN  21334.40255113 -.00000582  00000-0 -48259-6 0  9995","EPHEMERIS_TYPE":"0","ARG_OF_PERICENTER":"10.1238","REV_AT_EPOCH":"4682","PERIAPSIS":"376.994","MEAN_ELEMENT_THEORY":"SGP4","MEAN_MOTION_DDOT":"0.0000000000000","TLE_LINE2":"2 47584  53.0463 100.4887 0004001  10.1238 349.9855 15.62757681 46820","LAUNCH_DATE":"2021-02-04","APOAPSIS":"382.401","SEMIMAJOR_AXIS":"6757.832","RA_OF_ASC_NODE":"100.4887","OBJECT_ID":"2021-009AN","CLASSIFICATION_TYPE":"U"},{"EPHEMERIS_TYPE":"0","ARG_OF_PERICENTER":"87.6765","NORAD_CAT_ID":"47585","TLE_LINE1":"1 47585U 21009AP  21334.87672877  .00000326  00000-0  40909-4 0  9993","PERIAPSIS":"542.262","MEAN_ELEMENT_THEORY":"SGP4","REV_AT_EPOCH":"4629","SITE":"AFETR","GP_ID":"190793065","BSTAR":"0.00004090900000","INCLINATION":"53.0541","PERIOD":"95.592","MEAN_ANOMALY":"272.5044","EPOCH":"2021-11-30T21:02:29.365728","OBJECT_NAME":"STARLINK-1989","CLASSIFICATION_TYPE":"U","OBJECT_ID":"2021-009AP","APOAPSIS":"552.185","LAUNCH_DATE":"2021-02-04","RA_OF_ASC_NODE":"183.8858","SEMIMAJOR_AXIS":"6925.359","MEAN_MOTION_DDOT":"0.0000000000000","TLE_LINE2":"2 47585  53.0541 183.8858 0007164  87.6765 272.5044 15.06396718 46298","MEAN_MOTION_DOT":"0.00000326","ELEMENT_SET_NO":"999","MEAN_MOTION":"15.06396718","RCS_SIZE":"LARGE","REF_FRAME":"TEME","OBJECT_TYPE":"PAYLOAD","CENTER_NAME":"EARTH","DECAY_DATE":null,"COUNTRY_CODE":"US","TIME_SYSTEM":"UTC","FILE":"3228074","ECCENTRICITY":"0.00071640"},{"MEAN_MOTION":"15.06398800","MEAN_MOTION_DOT":"0.00001063","ELEMENT_SET_NO":"999","ECCENTRICITY":"0.00022490","COUNTRY_CODE":"US","DECAY_DATE":null,"CENTER_NAME":"EARTH","REF_FRAME":"TEME","RCS_SIZE":"LARGE","OBJECT_TYPE":"PAYLOAD","FILE":"3228256","TIME_SYSTEM":"UTC","INCLINATION":"53.0540","SITE":"AFETR","GP_ID":"190817270","BSTAR":"0.00009025800000","OBJECT_NAME":"STARLINK-1990","EPOCH":"2021-11-30T22:14:07.691424","MEAN_ANOMALY":"281.7978","PERIOD":"95.592","TLE_LINE1":"1 47586U 21009AQ  21334.92647791  .00001063  00000-0  90258-4 0  9998","NORAD_CAT_ID":"47586","EPHEMERIS_TYPE":"0","ARG_OF_PERICENTER":"78.3263","REV_AT_EPOCH":"4542","MEAN_ELEMENT_THEORY":"SGP4","PERIAPSIS":"545.660","MEAN_MOTION_DDOT":"0.0000000000000","TLE_LINE2":"2 47586  53.0540 203.6610 0002249  78.3263 281.7978 15.06398800 45420","RA_OF_ASC_NODE":"203.6610","SEMIMAJOR_AXIS":"6925.352","APOAPSIS":"548.775","LAUNCH_DATE":"2021-02-04","OBJECT_ID":"2021-009AQ","CLASSIFICATION_TYPE":"U"},{"PERIAPSIS":"545.619","MEAN_ELEMENT_THEORY":"SGP4","REV_AT_EPOCH":"4583","EPHEMERIS_TYPE":"0","ARG_OF_PERICENTER":"86.9695","NORAD_CAT_ID":"47587","TLE_LINE1":"1 47587U 21009AR  21334.85553108  .00001045  00000-0  89042-4 0  9998","PERIOD":"95.592","MEAN_ANOMALY":"273.1554","EPOCH":"2021-11-30T20:31:57.885312","OBJECT_NAME":"STARLINK-1991","GP_ID":"190816018","SITE":"AFETR","BSTAR":"0.00008904200000","INCLINATION":"53.0550","CLASSIFICATION_TYPE":"U","OBJECT_ID":"2021-009AR","LAUNCH_DATE":"2021-02-04","APOAPSIS":"548.768","RA_OF_ASC_NODE":"173.9873","SEMIMAJOR_AXIS":"6925.328","MEAN_MOTION_DDOT":"0.0000000000000","TLE_LINE2":"2 47587  53.0550 173.9873 0002273  86.9695 273.1554 15.06406570 45837","ELEMENT_SET_NO":"999","MEAN_MOTION_DOT":"0.00001045","MEAN_MOTION":"15.06406570","TIME_SYSTEM":"UTC","FILE":"3228256","REF_FRAME":"TEME","RCS_SIZE":"LARGE","OBJECT_TYPE":"PAYLOAD","COUNTRY_CODE":"US","DECAY_DATE":null,"CENTER_NAME":"EARTH","ECCENTRICITY":"0.00022730"},{"MEAN_MOTION_DOT":"-0.00000484","ELEMENT_SET_NO":"999","MEAN_MOTION":"15.06393310","REF_FRAME":"TEME","RCS_SIZE":"LARGE","OBJECT_TYPE":"PAYLOAD","DECAY_DATE":null,"CENTER_NAME":"EARTH","COUNTRY_CODE":"US","TIME_SYSTEM":"UTC","FILE":"3228256","ECCENTRICITY":"0.00021300","NORAD_CAT_ID":"47588","TLE_LINE1":"1 47588U 21009AS  21334.84723004 -.00000484  00000-0 -13612-4 0  9990","EPHEMERIS_TYPE":"0","ARG_OF_PERICENTER":"78.7404","REV_AT_EPOCH":"4569","PERIAPSIS":"545.759","MEAN_ELEMENT_THEORY":"SGP4","INCLINATION":"53.0493","BSTAR":"-0.00001361200000","GP_ID":"190816268","SITE":"AFETR","EPOCH":"2021-11-30T20:20:00.675456","OBJECT_NAME":"STARLINK-1993","PERIOD":"95.593","MEAN_ANOMALY":"281.3824","OBJECT_ID":"2021-009AS","CLASSIFICATION_TYPE":"U","MEAN_MOTION_DDOT":"0.0000000000000","TLE_LINE2":"2 47588  53.0493 184.0303 0002130  78.7404 281.3824 15.06393310 45696","APOAPSIS":"548.709","LAUNCH_DATE":"2021-02-04","RA_OF_ASC_NODE":"184.0303","SEMIMAJOR_AXIS":"6925.369"},{"ELEMENT_SET_NO":"999","MEAN_MOTION_DOT":"-0.00000275","MEAN_MOTION":"15.06401548","TIME_SYSTEM":"UTC","FILE":"3228256","REF_FRAME":"TEME","RCS_SIZE":"LARGE","OBJECT_TYPE":"PAYLOAD","DECAY_DATE":null,"COUNTRY_CODE":"US","CENTER_NAME":"EARTH","ECCENTRICITY":"0.00019270","REV_AT_EPOCH":"4569","PERIAPSIS":"545.874","MEAN_ELEMENT_THEORY":"SGP4","NORAD_CAT_ID":"47589","TLE_LINE1":"1 47589U 21009AT  21334.86565917 -.00000275  00000-0  44118-6 0  9994","ARG_OF_PERICENTER":"84.6935","EPHEMERIS_TYPE":"0","EPOCH":"2021-11-30T20:46:32.952288","OBJECT_NAME":"STARLINK-1994","PERIOD":"95.592","MEAN_ANOMALY":"275.4273","INCLINATION":"53.0548","GP_ID":"190817519","BSTAR":"0.00000044118000","SITE":"AFETR","OBJECT_ID":"2021-009AT","CLASSIFICATION_TYPE":"U","MEAN_MOTION_DDOT":"0.0000000000000","TLE_LINE2":"2 47589  53.0548 183.9403 0001927  84.6935 275.4273 15.06401548 45690","LAUNCH_DATE":"2021-02-04","APOAPSIS":"548.543","RA_OF_ASC_NODE":"183.9403","SEMIMAJOR_AXIS":"6925.344"},{"EPHEMERIS_TYPE":"0","ARG_OF_PERICENTER":"74.2054","NORAD_CAT_ID":"47590","TLE_LINE1":"1 47590U 21009AU  21334.92278900  .00001251  00000-0  10290-3 0  9991","PERIAPSIS":"545.775","MEAN_ELEMENT_THEORY":"SGP4","REV_AT_EPOCH":"4542","BSTAR":"0.00010290000000","GP_ID":"190817770","SITE":"AFETR","INCLINATION":"53.0547","PERIOD":"95.592","MEAN_ANOMALY":"285.9165","EPOCH":"2021-11-30T22:08:48.969600","OBJECT_NAME":"STARLINK-1995","CLASSIFICATION_TYPE":"U","OBJECT_ID":"2021-009AU","LAUNCH_DATE":"2021-02-04","APOAPSIS":"548.658","RA_OF_ASC_NODE":"203.6804","SEMIMAJOR_AXIS":"6925.352","MEAN_MOTION_DDOT":"0.0000000000000","TLE_LINE2":"2 47590  53.0547 203.6804 0002081  74.2054 285.9165 15.06399001 45422","MEAN_MOTION_DOT":"0.00001251","ELEMENT_SET_NO":"999","MEAN_MOTION":"15.06399001","RCS_SIZE":"LARGE","OBJECT_TYPE":"PAYLOAD","REF_FRAME":"TEME","DECAY_DATE":null,"COUNTRY_CODE":"US","CENTER_NAME":"EARTH","TIME_SYSTEM":"UTC","FILE":"3228256","ECCENTRICITY":"0.00020810"}];
